ONEWEB-0176             
1 48210U 21031A   24108.92415765  .00000023  00000+0  26331-4 0  9999
2 48210  87.8913  86.9477 0001930  86.0499 274.0851 13.14502913144491
ONEWEB-0184             
1 48211U 21031B   24108.89720149 -.00000208  00000+0 -59590-3 0  9990
2 48211  87.8907  86.9388 0001721 119.2698 240.8604 13.14502979144460
ONEWEB-0179             
1 48212U 21031C   24108.86707694  .00000062  00000+0  13215-3 0  9998
2 48212  87.8916  86.9454 0002089  86.7761 273.3607 13.14501233144503
ONEWEB-0180             
1 48213U 21031D   24108.90036690 -.00000095  00000+0 -29163-3 0  9992
2 48213  87.8909  86.9386 0002157  89.2531 270.8846 13.14501137144396
ONEWEB-0218             
1 48214U 21031E   24108.92257980  .00000199  00000+0  50300-3 0  9992
2 48214  87.8910  86.9360 0002124 118.9543 241.1800 13.14503893144558
ONEWEB-0209             
1 48215U 21031F   24108.91146804  .00000040  00000+0  73451-4 0  9992
2 48215  87.8912  86.9709 0002156  86.6988 273.4388 13.14501442144554
